[
    {
        "Altitude(m)": 607895.7913755456,
        "Argument of Periapsis(deg)": 0.0,
        "Eccentricity": 0.0,
        "Inclination(deg)": 60.0,
        "Latitude(deg)": 40.998269142279405,
        "Longitude(deg)": -39.91141346107923,
        "Mean Anomaly(deg)": -229.09089999999998,
        "RAAN(deg)": 270.0,
        "Satellite Name": "Test1 1196",
        "Satellite Number": 1196,
        "Semi-Major Axis(m)": 6980739.136638005,
        "Time(s)": 0
    },
    {
        "Altitude(m)": 607795.1045021585,
        "Argument of Periapsis(deg)": 0.00010418945913296404,
        "Eccentricity": 0.0,
        "Inclination(deg)": 60.0,
        "Latitude(deg)": 40.5305939897364,
        "Longitude(deg)": -39.41481917574767,
        "Mean Anomaly(deg)": -228.4707938545382,
        "RAAN(deg)": 269.99957995086027,
        "Satellite Name": "Test1 1196",
        "Satellite Number": 1196,
        "Semi-Major Axis(m)": 6980739.136638005,
        "Time(s)": 10
    }
]